{
  "type": "FeatureCollection",
  "features": [
    {
      "type": "Feature",
      "properties": {
        "norad_id": 41581,
        "name": "INTELSAT 31 (IS-31)",
        "group": "intelsat",
        "lat": -0.013356251801571394,
        "lon": 168.15654942034007,
        "alt_km": 35779.28929817937,
        "timestamp": "2025-12-21T11:31:42.510254+00:00",
        "meta_object_name": "INTELSAT 31 (IS-31)",
        "meta_object_id": "2016-035A",
        "meta_epoch": "2025-12-20T14:29:23.871264",
        "meta_mean_motion": 1.00271704,
        "meta_eccentricity": 0.00019976,
        "meta_inclination": 0.0288,
        "meta_ra_of_asc_node": 267.9464,
        "meta_arg_of_pericenter": 295.2319,
        "meta_mean_anomaly": 8.5584,
        "meta_ephemeris_type": 0,
        "meta_classification_type": "U",
        "meta_norad_cat_id": 41581,
        "meta_element_set_no": 999,
        "meta_rev_at_epoch": 3489,
        "meta_bstar": 0,
        "meta_mean_motion_dot": -1.27e-06,
        "meta_mean_motion_ddot": 0,
        "tle_line1": "1 41581U 16035A   25354.60374851 -.00000127  00000+0  00000+0 0  9996",
        "tle_line2": "2 41581   0.0288 267.9464 0001997 295.2319   8.5584  1.00271704 34890"
      },
      "geometry": {
        "type": "Point",
        "coordinates": [
          168.15654942034007,
          -0.013356251801571394
        ]
      }
    },
    {
      "type": "Feature",
      "properties": {
        "norad_id": 41747,
        "name": "INTELSAT 36 (IS-36)",
        "group": "intelsat",
        "lat": -0.017278630167026302,
        "lon": -28.28958168385544,
        "alt_km": 35782.06344876943,
        "timestamp": "2025-12-21T11:31:42.510288+00:00",
        "meta_object_name": "INTELSAT 36 (IS-36)",
        "meta_object_id": "2016-053A",
        "meta_epoch": "2025-12-20T23:49:43.623264",
        "meta_mean_motion": 1.00270733,
        "meta_eccentricity": 0.0001025,
        "meta_inclination": 0.0107,
        "meta_ra_of_asc_node": 357.7376,
        "meta_arg_of_pericenter": 330.2475,
        "meta_mean_anomaly": 187.7589,
        "meta_ephemeris_type": 0,
        "meta_classification_type": "U",
        "meta_norad_cat_id": 41747,
        "meta_element_set_no": 999,
        "meta_rev_at_epoch": 3416,
        "meta_bstar": 0,
        "meta_mean_motion_dot": -1e-08,
        "meta_mean_motion_ddot": 0,
        "tle_line1": "1 41747U 16053A   25354.99286601 -.00000001  00000+0  00000+0 0  9998",
        "tle_line2": "2 41747   0.0107 357.7376 0001025 330.2475 187.7589  1.00270733 34165"
      },
      "geometry": {
        "type": "Point",
        "coordinates": [
          -28.28958168385544,
          -0.017278630167026302
        ]
      }
    },
    {
      "type": "Feature",
      "properties": {
        "norad_id": 41945,
        "name": "INTELSAT 32E (IS-32E)",
        "group": "intelsat",
        "lat": 0.001201320197864814,
        "lon": -139.96434975773977,
        "alt_km": 35790.08135899273,
        "timestamp": "2025-12-21T11:31:42.510303+00:00",
        "meta_object_name": "INTELSAT 32E (IS-32E)",
        "meta_object_id": "2017-007B",
        "meta_epoch": "2025-12-21T02:43:16.857120",
        "meta_mean_motion": 1.00268588,
        "meta_eccentricity": 7.4e-05,
        "meta_inclination": 0.0275,
        "meta_ra_of_asc_node": 69.6154,
        "meta_arg_of_pericenter": 319.9839,
        "meta_mean_anomaly": 57.9819,
        "meta_ephemeris_type": 0,
        "meta_classification_type": "U",
        "meta_norad_cat_id": 41945,
        "meta_element_set_no": 999,
        "meta_rev_at_epoch": 3244,
        "meta_bstar": 0,
        "meta_mean_motion_dot": -2.46e-06,
        "meta_mean_motion_ddot": 0,
        "tle_line1": "1 41945U 17007B   25355.11338955 -.00000246  00000+0  00000+0 0  9994",
        "tle_line2": "2 41945   0.0275  69.6154 0000740 319.9839  57.9819  1.00268588 32443"
      },
      "geometry": {
        "type": "Point",
        "coordinates": [
          -139.96434975773977,
          0.001201320197864814
        ]
      }
    },
    {
      "type": "Feature",
      "properties": {
        "norad_id": 42818,
        "name": "INTELSAT 35E (IS-35E)",
        "group": "intelsat",
        "lat": -0.021513164347967677,
        "lon": -131.28716936287628,
        "alt_km": 35780.71411439048,
        "timestamp": "2025-12-21T11:31:42.510317+00:00",
        "meta_object_name": "INTELSAT 35E (IS-35E)",
        "meta_object_id": "2017-041A",
        "meta_epoch": "2025-12-21T02:45:46.616832",
        "meta_mean_motion": 1.00270832,
        "meta_eccentricity": 0.0001858,
        "meta_inclination": 0.017,
        "meta_ra_of_asc_node": 28.2756,
        "meta_arg_of_pericenter": 244.397,
        "meta_mean_anomaly": 184.2219,
        "meta_ephemeris_type": 0,
        "meta_classification_type": "U",
        "meta_norad_cat_id": 42818,
        "meta_element_set_no": 999,
        "meta_rev_at_epoch": 3103,
        "meta_bstar": 0,
        "meta_mean_motion_dot": -2.15e-06,
        "meta_mean_motion_ddot": 0,
        "tle_line1": "1 42818U 17041A   25355.11512288 -.00000215  00000+0  00000+0 0  9991",
        "tle_line2": "2 42818   0.0170  28.2756 0001858 244.3970 184.2219  1.00270832 31031"
      },
      "geometry": {
        "type": "Point",
        "coordinates": [
          -131.28716936287628,
          -0.021513164347967677
        ]
      }
    },
    {
      "type": "Feature",
      "properties": {
        "norad_id": 42950,
        "name": "INTELSAT 37E (IS-37E)",
        "group": "intelsat",
        "lat": -0.035425830065145776,
        "lon": -114.79525460568425,
        "alt_km": 35774.69271856425,
        "timestamp": "2025-12-21T11:31:42.510329+00:00",
        "meta_object_name": "INTELSAT 37E (IS-37E)",
        "meta_object_id": "2017-059A",
        "meta_epoch": "2025-12-21T03:48:38.471040",
        "meta_mean_motion": 1.00271819,
        "meta_eccentricity": 0.0002833,
        "meta_inclination": 0.0177,
        "meta_ra_of_asc_node": 17.7899,
        "meta_arg_of_pericenter": 245.6869,
        "meta_mean_anomaly": 225.6628,
        "meta_ephemeris_type": 0,
        "meta_classification_type": "U",
        "meta_norad_cat_id": 42950,
        "meta_element_set_no": 999,
        "meta_rev_at_epoch": 3028,
        "meta_bstar": 0,
        "meta_mean_motion_dot": -1.18e-06,
        "meta_mean_motion_ddot": 0,
        "tle_line1": "1 42950U 17059A   25355.15877860 -.00000118  00000+0  00000+0 0  9993",
        "tle_line2": "2 42950   0.0177  17.7899 0002833 245.6869 225.6628  1.00271819 30287"
      },
      "geometry": {
        "type": "Point",
        "coordinates": [
          -114.79525460568425,
          -0.035425830065145776
        ]
      }
    },
    {
      "type": "Feature",
      "properties": {
        "norad_id": 43632,
        "name": "AZERSPACE 2 (IS-38)",
        "group": "intelsat",
        "lat": -0.027312160699128646,
        "lon": -51.65325024649522,
        "alt_km": 35782.16112015469,
        "timestamp": "2025-12-21T11:31:42.510341+00:00",
        "meta_object_name": "AZERSPACE 2 (IS-38)",
        "meta_object_id": "2018-074A",
        "meta_epoch": "2025-12-21T03:08:29.442048",
        "meta_mean_motion": 1.00271529,
        "meta_eccentricity": 0.00012,
        "meta_inclination": 0.018,
        "meta_ra_of_asc_node": 339.7282,
        "meta_arg_of_pericenter": 289.6367,
        "meta_mean_anomaly": 272.833,
        "meta_ephemeris_type": 0,
        "meta_classification_type": "U",
        "meta_norad_cat_id": 43632,
        "meta_element_set_no": 999,
        "meta_rev_at_epoch": 2666,
        "meta_bstar": 0,
        "meta_mean_motion_dot": 1.59e-06,
        "meta_mean_motion_ddot": 0,
        "tle_line1": "1 43632U 18074A   25355.13089632  .00000159  00000+0  00000+0 0  9993",
        "tle_line2": "2 43632   0.0180 339.7282 0001200 289.6367 272.8330  1.00271529 26669"
      },
      "geometry": {
        "type": "Point",
        "coordinates": [
          -51.65325024649522,
          -0.027312160699128646
        ]
      }
    },
    {
      "type": "Feature",
      "properties": {
        "norad_id": 43633,
        "name": "HORIZONS-3E",
        "group": "intelsat",
        "lat": -0.00863078804104994,
        "lon": 72.201980933987,
        "alt_km": 35788.05237707007,
        "timestamp": "2025-12-21T11:31:42.510354+00:00",
        "meta_object_name": "HORIZONS-3E",
        "meta_object_id": "2018-074B",
        "meta_epoch": "2025-12-20T20:52:53.061312",
        "meta_mean_motion": 1.00270825,
        "meta_eccentricity": 6.66e-05,
        "meta_inclination": 0.0092,
        "meta_ra_of_asc_node": 228.8409,
        "meta_arg_of_pericenter": 76.0136,
        "meta_mean_anomaly": 267.0442,
        "meta_ephemeris_type": 0,
        "meta_classification_type": "U",
        "meta_norad_cat_id": 43633,
        "meta_element_set_no": 999,
        "meta_rev_at_epoch": 2655,
        "meta_bstar": 0,
        "meta_mean_motion_dot": 0,
        "meta_mean_motion_ddot": 0,
        "tle_line1": "1 43633U 18074B   25354.87005858  .00000000  00000+0  00000+0 0  9997",
        "tle_line2": "2 43633   0.0092 228.8409 0000666  76.0136 267.0442  1.00270825 26554"
      },
      "geometry": {
        "type": "Point",
        "coordinates": [
          72.201980933987,
          -0.00863078804104994
        ]
      }
    }
  ]
}